[{"OBJECT_NAME":"ONEWEB-0310","OBJECT_ID":"2021-075X","EPOCH":"2026-03-09T19:44:10.768704","MEAN_MOTION":13.12444641,"ECCENTRICITY":0.00018232,"INCLINATION":87.8998,"RA_OF_ASC_NODE":10.4078,"ARG_OF_PERICENTER":80.2008,"MEAN_ANOMALY":279.9326,"EPHEMERIS_TYPE":0,"CLASSIFICATION_TYPE":"U","NORAD_CAT_ID":49096,"ELEMENT_SET_NO":999,"REV_AT_EPOCH":22215,"BSTAR":0.0014705659,"MEAN_MOTION_DOT":5.42e-6,"MEAN_MOTION_DDOT":0},{"OBJECT_NAME":"UNKNOWN","OBJECT_ID":"","EPOCH":"2026-03-05T18:48:55.282752","MEAN_MOTION":13.16435767,"ECCENTRICITY":0.0016249,"INCLINATION":82.4776,"RA_OF_ASC_NODE":189.4112,"ARG_OF_PERICENTER":239.19,"MEAN_ANOMALY":274.5257,"EPHEMERIS_TYPE":0,"CLASSIFICATION_TYPE":"U","NORAD_CAT_ID":82627,"ELEMENT_SET_NO":999,"REV_AT_EPOCH":58975,"BSTAR":0.0017379,"MEAN_MOTION_DOT":6.75e-6,"MEAN_MOTION_DDOT":0}]
